{"type": "FeatureCollection", "features": [{"type": "Feature", "properties": {"norad_id": 25590, "name": "COSMOS 2361", "group": "musson", "lat": -18.333514723263306, "lon": -13.578538176907573, "alt_km": 981.049504438849, "timestamp": "2025-12-06T09:34:17.183508+00:00", "meta": {"OBJECT_NAME": "COSMOS 2361", "OBJECT_ID": "1998-076A", "EPOCH": "2025-12-05T23:28:48.597600", "MEAN_MOTION": 13.73216312, "ECCENTRICITY": 0.00301112, "INCLINATION": 82.934, "RA_OF_ASC_NODE": 349.0878, "ARG_OF_PERICENTER": 285.2557, "MEAN_ANOMALY": 138.6315, "EPHEMERIS_TYPE": 0, "CLASSIFICATION_TYPE": "U", "NORAD_CAT_ID": 25590, "ELEMENT_SET_NO": 999, "REV_AT_EPOCH": 35018, "BSTAR": 7.8965957e-05, "MEAN_MOTION_DOT": 8.8e-07, "MEAN_MOTION_DDOT": 0}, "tle": {"line1": "1 25590U 98076A   25339.97834025  .00000088  00000+0  78966-4 0  9996", "line2": "2 25590  82.9340 349.0878 0030111 285.2557 138.6315 13.73216312350181"}}, "geometry": {"type": "Point", "coordinates": [-13.578538176907573, -18.333514723263306]}}, {"type": "Feature", "properties": {"norad_id": 26818, "name": "COSMOS 2378", "group": "musson", "lat": 32.58259406155094, "lon": 8.97769334327038, "alt_km": 1005.9627623549259, "timestamp": "2025-12-06T09:34:17.183529+00:00", "meta": {"OBJECT_NAME": "COSMOS 2378", "OBJECT_ID": "2001-023A", "EPOCH": "2025-12-05T14:45:36.823392", "MEAN_MOTION": 13.74141138, "ECCENTRICITY": 0.00320258, "INCLINATION": 82.9278, "RA_OF_ASC_NODE": 5.0081, "ARG_OF_PERICENTER": 225.207, "MEAN_ANOMALY": 252.4782, "EPHEMERIS_TYPE": 0, "CLASSIFICATION_TYPE": "U", "NORAD_CAT_ID": 26818, "ELEMENT_SET_NO": 999, "REV_AT_EPOCH": 22825, "BSTAR": 8.614543e-05, "MEAN_MOTION_DOT": 9.6e-07, "MEAN_MOTION_DDOT": 0}, "tle": {"line1": "1 26818U 01023A   25339.61500953  .00000096  00000+0  86145-4 0  9994", "line2": "2 26818  82.9278   5.0081 0032025 225.2070 252.4782 13.74141138228259"}}, "geometry": {"type": "Point", "coordinates": [8.97769334327038, 32.58259406155094]}}, {"type": "Feature", "properties": {"norad_id": 27436, "name": "COSMOS 2389", "group": "musson", "lat": -36.86559381571601, "lon": 137.00414758045036, "alt_km": 1013.9568491216614, "timestamp": "2025-12-06T09:34:17.183542+00:00", "meta": {"OBJECT_NAME": "COSMOS 2389", "OBJECT_ID": "2002-026A", "EPOCH": "2025-12-05T22:19:47.511264", "MEAN_MOTION": 13.75153553, "ECCENTRICITY": 0.00477505, "INCLINATION": 82.9496, "RA_OF_ASC_NODE": 312.0261, "ARG_OF_PERICENTER": 79.2496, "MEAN_ANOMALY": 339.9615, "EPHEMERIS_TYPE": 0, "CLASSIFICATION_TYPE": "U", "NORAD_CAT_ID": 27436, "ELEMENT_SET_NO": 999, "REV_AT_EPOCH": 18055, "BSTAR": 7.5607418e-05, "MEAN_MOTION_DOT": 8.9e-07, "MEAN_MOTION_DDOT": 0}, "tle": {"line1": "1 27436U 02026A   25339.93041101  .00000089  00000+0  75607-4 0  9998", "line2": "2 27436  82.9496 312.0261 0047750  79.2496 339.9615 13.75153553180550"}}, "geometry": {"type": "Point", "coordinates": [137.00414758045036, -36.86559381571601]}}, {"type": "Feature", "properties": {"norad_id": 27818, "name": "COSMOS 2398", "group": "musson", "lat": -52.3935921182708, "lon": 106.61875911044578, "alt_km": 1003.7064396563392, "timestamp": "2025-12-06T09:34:17.183554+00:00", "meta": {"OBJECT_NAME": "COSMOS 2398", "OBJECT_ID": "2003-023A", "EPOCH": "2025-12-05T22:15:44.291808", "MEAN_MOTION": 13.72384696, "ECCENTRICITY": 0.00323162, "INCLINATION": 82.9478, "RA_OF_ASC_NODE": 277.7184, "ARG_OF_PERICENTER": 130.0935, "MEAN_ANOMALY": 295.6731, "EPHEMERIS_TYPE": 0, "CLASSIFICATION_TYPE": "U", "NORAD_CAT_ID": 27818, "ELEMENT_SET_NO": 999, "REV_AT_EPOCH": 12723, "BSTAR": 7.4558578e-05, "MEAN_MOTION_DOT": 8.4e-07, "MEAN_MOTION_DDOT": 0}, "tle": {"line1": "1 27818U 03023A   25339.92759597  .00000084  00000+0  74559-4 0  9994", "line2": "2 27818  82.9478 277.7184 0032316 130.0935 295.6731 13.72384696127235"}}, "geometry": {"type": "Point", "coordinates": [106.61875911044578, -52.3935921182708]}}, {"type": "Feature", "properties": {"norad_id": 28380, "name": "COSMOS 2407", "group": "musson", "lat": -21.683686679317972, "lon": -145.2285746475404, "alt_km": 984.0802440331772, "timestamp": "2025-12-06T09:34:17.183565+00:00", "meta": {"OBJECT_NAME": "COSMOS 2407", "OBJECT_ID": "2004-028A", "EPOCH": "2025-12-05T23:15:47.898432", "MEAN_MOTION": 13.76312462, "ECCENTRICITY": 0.00404904, "INCLINATION": 82.9614, "RA_OF_ASC_NODE": 217.9051, "ARG_OF_PERICENTER": 73.2029, "MEAN_ANOMALY": 298.6338, "EPHEMERIS_TYPE": 0, "CLASSIFICATION_TYPE": "U", "NORAD_CAT_ID": 28380, "ELEMENT_SET_NO": 999, "REV_AT_EPOCH": 7330, "BSTAR": 0.00010127991, "MEAN_MOTION_DOT": 1.15e-06, "MEAN_MOTION_DDOT": 0}, "tle": {"line1": "1 28380U 04028A   25339.96930438  .00000115  00000+0  10128-3 0  9990", "line2": "2 28380  82.9614 217.9051 0040490  73.2029 298.6338 13.76312462 73305"}}, "geometry": {"type": "Point", "coordinates": [-145.2285746475404, -21.683686679317972]}}, {"type": "Feature", "properties": {"norad_id": 28521, "name": "COSMOS 2414", "group": "musson", "lat": -21.97571881387666, "lon": -173.40776338928202, "alt_km": 970.9065679485129, "timestamp": "2025-12-06T09:34:17.183575+00:00", "meta": {"OBJECT_NAME": "COSMOS 2414", "OBJECT_ID": "2005-002A", "EPOCH": "2025-12-05T23:17:50.734176", "MEAN_MOTION": 13.87901631, "ECCENTRICITY": 0.00404859, "INCLINATION": 82.9499, "RA_OF_ASC_NODE": 189.7783, "ARG_OF_PERICENTER": 158.7058, "MEAN_ANOMALY": 201.5802, "EPHEMERIS_TYPE": 0, "CLASSIFICATION_TYPE": "U", "NORAD_CAT_ID": 28521, "ELEMENT_SET_NO": 999, "REV_AT_EPOCH": 5701, "BSTAR": 9.5009256e-05, "MEAN_MOTION_DOT": 1.3e-06, "MEAN_MOTION_DDOT": 0}, "tle": {"line1": "1 28521U 05002A   25339.97072609  .00000130  00000+0  95009-4 0  9997", "line2": "2 28521  82.9499 189.7783 0040485 158.7058 201.5802 13.87901631 57019"}}, "geometry": {"type": "Point", "coordinates": [-173.40776338928202, -21.97571881387666]}}, {"type": "Feature", "properties": {"norad_id": 32052, "name": "COSMOS 2429", "group": "musson", "lat": 42.15308729078604, "lon": -5.612277381785921, "alt_km": 949.2588369613677, "timestamp": "2025-12-06T09:34:17.183585+00:00", "meta": {"OBJECT_NAME": "COSMOS 2429", "OBJECT_ID": "2007-038A", "EPOCH": "2025-12-05T22:53:20.678784", "MEAN_MOTION": 13.7514837, "ECCENTRICITY": 0.00395368, "INCLINATION": 82.9803, "RA_OF_ASC_NODE": 348.3119, "ARG_OF_PERICENTER": 56.3301, "MEAN_ANOMALY": 304.1616, "EPHEMERIS_TYPE": 0, "CLASSIFICATION_TYPE": "U", "NORAD_CAT_ID": 32052, "ELEMENT_SET_NO": 999, "REV_AT_EPOCH": 91509, "BSTAR": 6.8461136e-05, "MEAN_MOTION_DOT": 8.1e-07, "MEAN_MOTION_DDOT": 0}, "tle": {"line1": "1 32052U 07038A   25339.95371156  .00000081  00000+0  68461-4 0  9996", "line2": "2 32052  82.9803 348.3119 0039536  56.3301 304.1616 13.75148370915091"}}, "geometry": {"type": "Point", "coordinates": [-5.612277381785921, 42.15308729078604]}}, {"type": "Feature", "properties": {"norad_id": 35635, "name": "COSMOS 2454", "group": "musson", "lat": -18.203358307903393, "lon": 171.12125268981305, "alt_km": 938.6649453737637, "timestamp": "2025-12-06T09:34:17.183596+00:00", "meta": {"OBJECT_NAME": "COSMOS 2454", "OBJECT_ID": "2009-039A", "EPOCH": "2025-12-06T00:01:46.066368", "MEAN_MOTION": 13.89927461, "ECCENTRICITY": 0.00205008, "INCLINATION": 82.9557, "RA_OF_ASC_NODE": 173.753, "ARG_OF_PERICENTER": 91.7639, "MEAN_ANOMALY": 61.965, "EPHEMERIS_TYPE": 0, "CLASSIFICATION_TYPE": "U", "NORAD_CAT_ID": 35635, "ELEMENT_SET_NO": 999, "REV_AT_EPOCH": 83056, "BSTAR": 9.042393e-05, "MEAN_MOTION_DOT": 1.27e-06, "MEAN_MOTION_DDOT": 0}, "tle": {"line1": "1 35635U 09039A   25340.00122762  .00000127  00000+0  90424-4 0  9999", "line2": "2 35635  82.9557 173.7530 0020500  91.7639  61.9650 13.89927461830567"}}, "geometry": {"type": "Point", "coordinates": [171.12125268981305, -18.203358307903393]}}, {"type": "Feature", "properties": {"norad_id": 36519, "name": "COSMOS 2463", "group": "musson", "lat": 77.14495797308402, "lon": 64.14655388454986, "alt_km": 1003.9550943232698, "timestamp": "2025-12-06T09:34:17.183606+00:00", "meta": {"OBJECT_NAME": "COSMOS 2463", "OBJECT_ID": "2010-017A", "EPOCH": "2025-12-05T21:46:36.966720", "MEAN_MOTION": 13.71648222, "ECCENTRICITY": 0.00350056, "INCLINATION": 82.9619, "RA_OF_ASC_NODE": 31.7331, "ARG_OF_PERICENTER": 307.6756, "MEAN_ANOMALY": 225.945, "EPHEMERIS_TYPE": 0, "CLASSIFICATION_TYPE": "U", "NORAD_CAT_ID": 36519, "ELEMENT_SET_NO": 999, "REV_AT_EPOCH": 78143, "BSTAR": 8.9201713e-05, "MEAN_MOTION_DOT": 9.5e-07, "MEAN_MOTION_DDOT": 0}, "tle": {"line1": "1 36519U 10017A   25339.90737230  .00000095  00000+0  89202-4 0  9994", "line2": "2 36519  82.9619  31.7331 0035005 307.6756 225.9450 13.71648222781432"}}, "geometry": {"type": "Point", "coordinates": [64.14655388454986, 77.14495797308402]}}]}